COSMOS 1933             
1 18958U 88020A   25343.45500168  .00006052  00000+0  30418-3 0  9996
2 18958  82.5137 340.1244 0005511 136.9597 223.2068 15.17067925 36543
SL-3 R/B                
1 19046U 88032B   25343.56716901  .00008005  00000+0  38574-3 0  9995
2 19046  97.5083 322.3094 0026378 184.0439 176.0586 15.18691173 38424
SL-16 R/B               
1 19120U 88039B   25343.50565564  .00000132  00000+0  85098-4 0  9993
2 19120  71.0153 259.2363 0019787 121.7457 238.5599 14.19596353945589
COSMOS 1953             
1 19210U 88050A   25343.49321980  .00009453  00000+0  35585-3 0  9996
2 19210  82.5091 248.8385 0013855  81.5324 278.7484 15.26880002 24012
SL-8 R/B                
1 19257U 88053B   25343.28246118  .00000524  00000+0  17851-3 0  9992
2 19257  74.0478 279.0911 0019058 124.5425 348.6927 14.38856123963593
COSMOS 1975             
1 19573U 88093A   25343.37207352  .00010610  00000+0  40556-3 0  9999
2 19573  82.5203 208.2000 0012711 123.1596 237.0864 15.26395679  5624
SL-14 R/B               
1 19574U 88093B   25343.66718486  .00000959  00000+0  10788-3 0  9996
2 19574  82.5302 126.5506 0020191 339.9700  30.2994 14.85544253987672
SL-16 R/B               
1 19650U 88102B   25343.42110551 -.00000128  00000+0 -40660-4 0  9998
2 19650  70.9997 341.4262 0013101 157.5833 202.5866 14.16136443914112
INTERCOSMOS 24          
1 20261U 89080A   25343.48688869  .00001668  00000+0  48524-3 0  9996
2 20261  82.6043 163.0678 1188798 142.0630 227.0596 12.59431138655447
SL-14 R/B               
1 20262U 89080C   25343.54409511  .00000683  00000+0  20008-3 0  9992
2 20262  82.5933 231.0719 1230708  30.8895 335.9022 12.50409955648889
DELTA 1 R/B             
1 20323U 89089B   25343.46668591  .00000668  00000+0  17384-3 0  9991
2 20323  97.0755 200.2230 0070309  48.4675 312.2525 14.50568660882657
ARIANE 40 R/B           
1 20443U 90005H   25343.47298002  .00000626  00000+0  21296-3 0  9992
2 20443  98.3246  41.7431 0011211 114.6201 245.6157 14.39795404879828
