CCSDS_OMM_VERS = 2.0
CREATION_DATE  = 
ORIGINATOR     = 

OBJECT_NAME    = COSMOS 1933
OBJECT_ID      = 1988-020A
CENTER_NAME    = EARTH
REF_FRAME      = TEME
TIME_SYSTEM    = UTC
MEAN_ELEMENT_THEORY = SGP/SGP4

EPOCH          = 2025-12-09T10:55:12.145152
MEAN_MOTION    = 15.17067925
ECCENTRICITY   = .00055112
INCLINATION    = 82.5137
RA_OF_ASC_NODE = 340.1244
ARG_OF_PERICENTER = 136.9597
MEAN_ANOMALY   = 223.2068

EPHEMERIS_TYPE = 0
CLASSIFICATION_TYPE = U
NORAD_CAT_ID   = 18958
ELEMENT_SET_NO = 999
REV_AT_EPOCH   = 3654
BSTAR          = .3041762E-3
MEAN_MOTION_DOT = .6052E-4
MEAN_MOTION_DDOT = 0

CCSDS_OMM_VERS = 2.0
CREATION_DATE  = 
ORIGINATOR     = 

OBJECT_NAME    = SL-3 R/B
OBJECT_ID      = 1988-032B
CENTER_NAME    = EARTH
REF_FRAME      = TEME
TIME_SYSTEM    = UTC
MEAN_ELEMENT_THEORY = SGP/SGP4

EPOCH          = 2025-12-09T13:36:43.402464
MEAN_MOTION    = 15.18691173
ECCENTRICITY   = .00263782
INCLINATION    = 97.5083
RA_OF_ASC_NODE = 322.3094
ARG_OF_PERICENTER = 184.0439
MEAN_ANOMALY   = 176.0586

EPHEMERIS_TYPE = 0
CLASSIFICATION_TYPE = U
NORAD_CAT_ID   = 19046
ELEMENT_SET_NO = 999
REV_AT_EPOCH   = 3842
BSTAR          = .385741E-3
MEAN_MOTION_DOT = .8005E-4
MEAN_MOTION_DDOT = 0

CCSDS_OMM_VERS = 2.0
CREATION_DATE  = 
ORIGINATOR     = 

OBJECT_NAME    = SL-16 R/B
OBJECT_ID      = 1988-039B
CENTER_NAME    = EARTH
REF_FRAME      = TEME
TIME_SYSTEM    = UTC
MEAN_ELEMENT_THEORY = SGP/SGP4

EPOCH          = 2025-12-09T12:08:08.647296
MEAN_MOTION    = 14.19596353
ECCENTRICITY   = .00197874
INCLINATION    = 71.0153
RA_OF_ASC_NODE = 259.2363
ARG_OF_PERICENTER = 121.7457
MEAN_ANOMALY   = 238.5599

EPHEMERIS_TYPE = 0
CLASSIFICATION_TYPE = U
NORAD_CAT_ID   = 19120
ELEMENT_SET_NO = 999
REV_AT_EPOCH   = 94558
BSTAR          = .8509787E-4
MEAN_MOTION_DOT = .132E-5
MEAN_MOTION_DDOT = 0

CCSDS_OMM_VERS = 2.0
CREATION_DATE  = 
ORIGINATOR     = 

OBJECT_NAME    = COSMOS 1953
OBJECT_ID      = 1988-050A
CENTER_NAME    = EARTH
REF_FRAME      = TEME
TIME_SYSTEM    = UTC
MEAN_ELEMENT_THEORY = SGP/SGP4

EPOCH          = 2025-12-09T11:50:14.190720
MEAN_MOTION    = 15.26880002
ECCENTRICITY   = .00138552
INCLINATION    = 82.5091
RA_OF_ASC_NODE = 248.8385
ARG_OF_PERICENTER = 81.5324
MEAN_ANOMALY   = 278.7484

EPHEMERIS_TYPE = 0
CLASSIFICATION_TYPE = U
NORAD_CAT_ID   = 19210
ELEMENT_SET_NO = 999
REV_AT_EPOCH   = 2401
BSTAR          = .35585481E-3
MEAN_MOTION_DOT = .9453E-4
MEAN_MOTION_DDOT = 0

CCSDS_OMM_VERS = 2.0
CREATION_DATE  = 
ORIGINATOR     = 

OBJECT_NAME    = SL-8 R/B
OBJECT_ID      = 1988-053B
CENTER_NAME    = EARTH
REF_FRAME      = TEME
TIME_SYSTEM    = UTC
MEAN_ELEMENT_THEORY = SGP/SGP4

EPOCH          = 2025-12-09T06:46:44.645952
MEAN_MOTION    = 14.38856123
ECCENTRICITY   = .0019058
INCLINATION    = 74.0478
RA_OF_ASC_NODE = 279.0911
ARG_OF_PERICENTER = 124.5425
MEAN_ANOMALY   = 348.6927

EPHEMERIS_TYPE = 0
CLASSIFICATION_TYPE = U
NORAD_CAT_ID   = 19257
ELEMENT_SET_NO = 999
REV_AT_EPOCH   = 96359
BSTAR          = .17851E-3
MEAN_MOTION_DOT = .524E-5
MEAN_MOTION_DDOT = 0

CCSDS_OMM_VERS = 2.0
CREATION_DATE  = 
ORIGINATOR     = 

OBJECT_NAME    = COSMOS 1975
OBJECT_ID      = 1988-093A
CENTER_NAME    = EARTH
REF_FRAME      = TEME
TIME_SYSTEM    = UTC
MEAN_ELEMENT_THEORY = SGP/SGP4

EPOCH          = 2025-12-09T08:55:47.152128
MEAN_MOTION    = 15.26395679
ECCENTRICITY   = .0012711
INCLINATION    = 82.5203
RA_OF_ASC_NODE = 208.2000
ARG_OF_PERICENTER = 123.1596
MEAN_ANOMALY   = 237.0864

EPHEMERIS_TYPE = 0
CLASSIFICATION_TYPE = U
NORAD_CAT_ID   = 19573
ELEMENT_SET_NO = 999
REV_AT_EPOCH   = 562
BSTAR          = .40556305E-3
MEAN_MOTION_DOT = .1061E-3
MEAN_MOTION_DDOT = 0

CCSDS_OMM_VERS = 2.0
CREATION_DATE  = 
ORIGINATOR     = 

OBJECT_NAME    = SL-14 R/B
OBJECT_ID      = 1988-093B
CENTER_NAME    = EARTH
REF_FRAME      = TEME
TIME_SYSTEM    = UTC
MEAN_ELEMENT_THEORY = SGP/SGP4

EPOCH          = 2025-12-09T16:00:44.771904
MEAN_MOTION    = 14.85544253
ECCENTRICITY   = .00201912
INCLINATION    = 82.5302
RA_OF_ASC_NODE = 126.5506
ARG_OF_PERICENTER = 339.9700
MEAN_ANOMALY   = 30.2994

EPHEMERIS_TYPE = 0
CLASSIFICATION_TYPE = U
NORAD_CAT_ID   = 19574
ELEMENT_SET_NO = 999
REV_AT_EPOCH   = 98767
BSTAR          = .10787892E-3
MEAN_MOTION_DOT = .959E-5
MEAN_MOTION_DDOT = 0

CCSDS_OMM_VERS = 2.0
CREATION_DATE  = 
ORIGINATOR     = 

OBJECT_NAME    = SL-16 R/B
OBJECT_ID      = 1988-102B
CENTER_NAME    = EARTH
REF_FRAME      = TEME
TIME_SYSTEM    = UTC
MEAN_ELEMENT_THEORY = SGP/SGP4

EPOCH          = 2025-12-09T10:06:23.516064
MEAN_MOTION    = 14.16136443
ECCENTRICITY   = .00131016
INCLINATION    = 70.9997
RA_OF_ASC_NODE = 341.4262
ARG_OF_PERICENTER = 157.5833
MEAN_ANOMALY   = 202.5866

EPHEMERIS_TYPE = 0
CLASSIFICATION_TYPE = U
NORAD_CAT_ID   = 19650
ELEMENT_SET_NO = 999
REV_AT_EPOCH   = 91411
BSTAR          = -.40659969E-4
MEAN_MOTION_DOT = -.128E-5
MEAN_MOTION_DDOT = 0

CCSDS_OMM_VERS = 2.0
CREATION_DATE  = 
ORIGINATOR     = 

OBJECT_NAME    = INTERCOSMOS 24
OBJECT_ID      = 1989-080A
CENTER_NAME    = EARTH
REF_FRAME      = TEME
TIME_SYSTEM    = UTC
MEAN_ELEMENT_THEORY = SGP/SGP4

EPOCH          = 2025-12-09T11:41:07.182816
MEAN_MOTION    = 12.59431138
ECCENTRICITY   = .11887989
INCLINATION    = 82.6043
RA_OF_ASC_NODE = 163.0678
ARG_OF_PERICENTER = 142.0630
MEAN_ANOMALY   = 227.0596

EPHEMERIS_TYPE = 0
CLASSIFICATION_TYPE = U
NORAD_CAT_ID   = 20261
ELEMENT_SET_NO = 999
REV_AT_EPOCH   = 65544
BSTAR          = .48523865E-3
MEAN_MOTION_DOT = .1668E-4
MEAN_MOTION_DDOT = 0

CCSDS_OMM_VERS = 2.0
CREATION_DATE  = 
ORIGINATOR     = 

OBJECT_NAME    = SL-14 R/B
OBJECT_ID      = 1989-080C
CENTER_NAME    = EARTH
REF_FRAME      = TEME
TIME_SYSTEM    = UTC
MEAN_ELEMENT_THEORY = SGP/SGP4

EPOCH          = 2025-12-09T13:03:29.817504
MEAN_MOTION    = 12.50409955
ECCENTRICITY   = .12307081
INCLINATION    = 82.5933
RA_OF_ASC_NODE = 231.0719
ARG_OF_PERICENTER = 30.8895
MEAN_ANOMALY   = 335.9022

EPHEMERIS_TYPE = 0
CLASSIFICATION_TYPE = U
NORAD_CAT_ID   = 20262
ELEMENT_SET_NO = 999
REV_AT_EPOCH   = 64888
BSTAR          = .20007683E-3
MEAN_MOTION_DOT = .683E-5
MEAN_MOTION_DDOT = 0

CCSDS_OMM_VERS = 2.0
CREATION_DATE  = 
ORIGINATOR     = 

OBJECT_NAME    = DELTA 1 R/B
OBJECT_ID      = 1989-089B
CENTER_NAME    = EARTH
REF_FRAME      = TEME
TIME_SYSTEM    = UTC
MEAN_ELEMENT_THEORY = SGP/SGP4

EPOCH          = 2025-12-09T11:12:01.662624
MEAN_MOTION    = 14.50568660
ECCENTRICITY   = .00703095
INCLINATION    = 97.0755
RA_OF_ASC_NODE = 200.2230
ARG_OF_PERICENTER = 48.4675
MEAN_ANOMALY   = 312.2525

EPHEMERIS_TYPE = 0
CLASSIFICATION_TYPE = U
NORAD_CAT_ID   = 20323
ELEMENT_SET_NO = 999
REV_AT_EPOCH   = 88265
BSTAR          = .17383942E-3
MEAN_MOTION_DOT = .668E-5
MEAN_MOTION_DDOT = 0

CCSDS_OMM_VERS = 2.0
CREATION_DATE  = 
ORIGINATOR     = 

OBJECT_NAME    = ARIANE 40 R/B
OBJECT_ID      = 1990-005H
CENTER_NAME    = EARTH
REF_FRAME      = TEME
TIME_SYSTEM    = UTC
MEAN_ELEMENT_THEORY = SGP/SGP4

EPOCH          = 2025-12-09T11:21:05.473728
MEAN_MOTION    = 14.39795404
ECCENTRICITY   = .00112114
INCLINATION    = 98.3246
RA_OF_ASC_NODE = 41.7431
ARG_OF_PERICENTER = 114.6201
MEAN_ANOMALY   = 245.6157

EPHEMERIS_TYPE = 0
CLASSIFICATION_TYPE = U
NORAD_CAT_ID   = 20443
ELEMENT_SET_NO = 999
REV_AT_EPOCH   = 87982
BSTAR          = .21295782E-3
MEAN_MOTION_DOT = .626E-5
MEAN_MOTION_DDOT = 0

